ONEWEB-0229             
1 48779U 21045N   24209.22177032  .00000135  00000+0  32394-3 0  9990
2 48779  87.9019  36.4975 0001790  82.9232 277.2102 13.15550284153697
ONEWEB-0228             
1 48780U 21045P   24209.47907532 -.00000146  00000+0 -42433-3 0  9994
2 48780  87.9012  36.4269 0001740  84.1798 275.9530 13.15070881154774
ONEWEB-0232             
1 48781U 21045Q   24209.22971070 -.00000008  00000+0 -55986-4 0  9991
2 48781  87.9010  36.4901 0001753  84.1397 275.9933 13.15548437153936
ONEWEB-0231             
1 48782U 21045R   24208.75117712  .00000103  00000+0  24082-3 0  9990
2 48782  87.9027  36.6213 0001662  79.1952 280.9365 13.15548482153567
ONEWEB-0234             
1 48783U 21045S   24209.45549787  .00000052  00000+0  10451-3 0  9998
2 48783  87.9019  36.4370 0002010 128.8349 231.2961 13.15548659154929
ONEWEB-0238             
1 48784U 21045T   24209.25744476  .00000006  00000+0 -18505-4 0  9998
2 48784  87.9016  36.4939 0001783  93.3403 266.7931 13.15549270153661
ONEWEB-0240             
1 48785U 21045U   24209.26694166  .00000156  00000+0  37985-3 0  9997
2 48785  87.9017  36.4593 0001366  82.6025 277.5261 13.15548796153698
ONEWEB-0246             
1 48786U 21045V   24209.26138279  .00000028  00000+0  39823-4 0  9998
2 48786  87.9017  36.4655 0001815  82.0067 278.1269 13.15544291153564
